{
    "links": {
        "self": "http://www.neowsapp.com/rest/v1/neo/3789716?api_key=iIulBulltgU6a56xZRHN4H3l9WmuAYTsLGpBGhQ2"
    },
    "id": "3789716",
    "neo_reference_id": "3789716",
    "name": "(2017 WH16)",
    "designation": "2017 WH16",
    "nasa_jpl_url": "http://ssd.jpl.nasa.gov/sbdb.cgi?sstr=3789716",
    "absolute_magnitude_h": 25.7,
    "estimated_diameter": {
        "kilometers": {
            "estimated_diameter_min": 0.0192555078,
            "estimated_diameter_max": 0.0430566244
        },
        "meters": {
            "estimated_diameter_min": 19.2555078188,
            "estimated_diameter_max": 43.0566244241
        },
        "miles": {
            "estimated_diameter_min": 0.0119648141,
            "estimated_diameter_max": 0.0267541378
        },
        "feet": {
            "estimated_diameter_min": 63.1742402722,
            "estimated_diameter_max": 141.2618956756
        }
    },
    "is_potentially_hazardous_asteroid": false,
    "close_approach_data": [
        {
            "close_approach_date": "2017-12-03",
            "close_approach_date_full": "2017-Dec-03 05:36",
            "epoch_date_close_approach": 1512279360000,
            "relative_velocity": {
                "kilometers_per_second": "15.2129523682",
                "kilometers_per_hour": "54766.6285255531",
                "miles_per_hour": "34029.8531524472"
            },
            "miss_distance": {
                "astronomical": "0.0445450417",
                "lunar": "17.3280212213",
                "kilometers": "6663843.357381179",
                "miles": "4140720.2545271102"
            },
            "orbiting_body": "Earth"
        }
    ],
    "orbital_data": {
        "orbit_id": "1",
        "orbit_determination_date": "2017-11-27 13:12:04",
        "first_observation_date": "2017-11-24",
        "last_observation_date": "2017-11-27",
        "data_arc_in_days": 3,
        "observations_used": 27,
        "orbit_uncertainty": "8",
        "minimum_orbit_intersection": ".0306373",
        "jupiter_tisserand_invariant": "5.092",
        "epoch_osculation": "2458082.5",
        "eccentricity": ".4330184430206186",
        "semi_major_axis": "1.220003972672202",
        "inclination": "18.76039187125819",
        "ascending_node_longitude": "65.52005642065988",
        "orbital_period": "492.198509436821",
        "perihelion_distance": ".6917197519467156",
        "perihelion_argument": "96.10749810737396",
        "aphelion_distance": "1.748288193397688",
        "perihelion_time": "2458150.413072073135",
        "mean_anomaly": "310.3275498044416",
        "mean_motion": ".7314122109226133",
        "equinox": "J2000",
        "orbit_class": {
            "orbit_class_type": "APO",
            "orbit_class_description": "Near-Earth asteroid orbits which cross the Earth’s orbit similar to that of 1862 Apollo",
            "orbit_class_range": "a (semi-major axis) > 1.0 AU; q (perihelion) < 1.017 AU"
        }
    },
    "is_sentry_object": false
}